DTUSAT                  
1 27842U 03031C   07359.58509621  .00000039  00000-0  38327-4 0  1834
2 27842  98.7133   6.2390 0008771 239.0595 120.9724 14.20909059232711
CUTE-1 (CO-55)          
1 27844U 03031E   07359.76017437  .00000080  00000-0  57535-4 0  1967
2 27844  98.7177   5.4397 0009051 259.4867 100.5284 14.20551344232679
QUAKESAT                
1 27845U 03031F   07359.63647592  .00000093  00000-0  64068-4 0  1799
2 27845  98.7224   4.6976 0008414 278.5765  81.4465 14.20160875232581
AAU CUBESAT             
1 27846U 03031G   07359.58495365  .00000011  00000-0  25411-4 0  1286
2 27846  98.7132   6.2352 0008795 240.6688 119.3612 14.20909866232713
CANX-1                  
1 27847U 03031H   07359.58797610  .00000041  00000-0  39122-4 0  1417
2 27847  98.7131   6.2346 0008898 238.3434 121.6885 14.20898579232663
CUBESAT XI-IV (CO-57)   
1 27848U 03031J   07359.59417429  .00000042  00000-0  39968-4 0  1527
2 27848  98.7171   4.4107 0009112 265.1895  94.8231 14.20364623232622
UWE-1                   
1 28892U 05043C   07359.41245653  .00000157  00000-0  42733-4 0  9328
2 28892  98.1148 252.0351 0016466 233.8202 126.1477 14.59576043115103
CUBESAT XI-V (CO-58)    
1 28895U 05043F   07359.38534130  .00000096  00000-0  29838-4 0  9073
2 28895  98.1166 252.2953 0016981 233.9849 125.9743 14.59618508114987
NCUBE-2                 
1 28897U 05043H   07359.64424522  .00000159  00000-0  42979-4 0  4354
2 28897  98.1137 252.4893 0016410 234.7568 125.2084 14.59786002107300
CUTE-1.7 (CO-56)        
1 28941U 06005C   07359.89115623  .00011535  25479-5  10860-3 0  7414
2 28941  98.1092  83.2004 0196877 310.3404  48.0643 15.47625567103002
HIT-SAT (HO-59)         
1 29484U 06041F   07359.79289037  .00034341  30509-5  16856-3 0  9779
2 29484  98.2585  80.7628 0149137 290.5862  67.9330 15.67962152 70924
GENESAT-1               
1 29655U 06058C   07359.93279579  .00007118  00000-0  10425-3 0  3100
2 29655  40.0310 295.7831 0003167 212.3276 147.7324 15.55690544 58210
CSTB 1                  
1 31122U 07012F   07359.77526379  .00000551  00000-0  13192-3 0  2194
2 31122  98.0653  66.6621 0086462 150.2190 210.3927 14.55067607 36715
MAST                    
1 31126U 07012K   07359.23853933  .00000175  00000-0  50171-4 0  2155
2 31126  98.0626  65.4750 0095330 153.5899 207.0196 14.53387932 36608
LIBERTAD-1              
1 31128U 07012M   07359.70525800 -.00000047  00000-0  00000-0 0  2160
2 31128  98.0636  65.3333 0103052 153.8002 206.8462 14.51897412 36618
POLYSAT CP3             
1 31129U 07012N   07359.82778504  .00000339  00000-0  89029-4 0  6153
2 31129  98.0643  65.4753 0103211 153.5694 207.0794 14.51988223 36617
CAPE1                   
1 31130U 07012P   07359.90878720  .00000193  00000-0  55429-4 0  2000
2 31130  98.0639  65.5323 0103556 153.1387 207.5208 14.51915647 36430
POLYSAT CP4             
1 31132U 07012Q   07359.70473054  .00000175  00000-0  49047-4 0  2101
2 31132  98.0659  66.5933 0086220 150.3523 210.2595 14.55072845 36574
